{
    "links": {
        "self": "http://www.neowsapp.com/rest/v1/neo/3536564?api_key=iIulBulltgU6a56xZRHN4H3l9WmuAYTsLGpBGhQ2"
    },
    "id": "3536564",
    "neo_reference_id": "3536564",
    "name": "(2010 NL)",
    "designation": "2010 NL",
    "nasa_jpl_url": "http://ssd.jpl.nasa.gov/sbdb.cgi?sstr=3536564",
    "absolute_magnitude_h": 26.0,
    "estimated_diameter": {
        "kilometers": {
            "estimated_diameter_min": 0.0167708462,
            "estimated_diameter_max": 0.0375007522
        },
        "meters": {
            "estimated_diameter_min": 16.7708462163,
            "estimated_diameter_max": 37.5007521798
        },
        "miles": {
            "estimated_diameter_min": 0.0104209175,
            "estimated_diameter_max": 0.0233018799
        },
        "feet": {
            "estimated_diameter_min": 55.0224631002,
            "estimated_diameter_max": 123.0339677816
        }
    },
    "is_potentially_hazardous_asteroid": false,
    "close_approach_data": [
        {
            "close_approach_date": "2010-07-10",
            "close_approach_date_full": "2010-Jul-10 20:18",
            "epoch_date_close_approach": 1278793080000,
            "relative_velocity": {
                "kilometers_per_second": "10.3656968503",
                "kilometers_per_hour": "37316.5086610649",
                "miles_per_hour": "23187.0272844267"
            },
            "miss_distance": {
                "astronomical": "0.0313747275",
                "lunar": "12.2047689975",
                "kilometers": "4693592.405830425",
                "miles": "2916463.082792865"
            },
            "orbiting_body": "Earth"
        }
    ],
    "orbital_data": {
        "orbit_id": "10",
        "orbit_determination_date": "2017-04-06 08:57:09",
        "first_observation_date": "2010-07-05",
        "last_observation_date": "2010-07-11",
        "data_arc_in_days": 6,
        "observations_used": 32,
        "orbit_uncertainty": "8",
        "minimum_orbit_intersection": ".0233667",
        "jupiter_tisserand_invariant": "4.144",
        "epoch_osculation": "2455384.5",
        "eccentricity": ".4305241671238814",
        "semi_major_axis": "1.659238504473803",
        "inclination": "8.54321523143593",
        "ascending_node_longitude": "283.4290115761676",
        "orbital_period": "780.6595070977412",
        "perihelion_distance": ".9448962292753446",
        "perihelion_argument": "50.74099303364645",
        "aphelion_distance": "2.373580779672262",
        "perihelion_time": "2455425.389782338935",
        "mean_anomaly": "341.1437361510624",
        "mean_motion": ".4611485503306972",
        "equinox": "J2000",
        "orbit_class": {
            "orbit_class_type": "APO",
            "orbit_class_description": "Near-Earth asteroid orbits which cross the Earth’s orbit similar to that of 1862 Apollo",
            "orbit_class_range": "a (semi-major axis) > 1.0 AU; q (perihelion) < 1.017 AU"
        }
    },
    "is_sentry_object": false
}